[{"OBJECT_NAME":"STARLINK-3252","OBJECT_ID":"2021-115K","EPOCH":"2026-03-09T12:22:59.290464","MEAN_MOTION":15.08849963,"ECCENTRICITY":0.00012891,"INCLINATION":53.2181,"RA_OF_ASC_NODE":159.9016,"ARG_OF_PERICENTER":93.3486,"MEAN_ANOMALY":266.7653,"EPHEMERIS_TYPE":0,"CLASSIFICATION_TYPE":"U","NORAD_CAT_ID":49733,"ELEMENT_SET_NO":999,"REV_AT_EPOCH":23536,"BSTAR":6.1263281e-5,"MEAN_MOTION_DOT":6.87e-6,"MEAN_MOTION_DDOT":0},{"OBJECT_NAME":"OBJECT J","OBJECT_ID":"2025-292J","EPOCH":"2026-03-09T21:49:22.925568","MEAN_MOTION":15.05538385,"ECCENTRICITY":0.00147146,"INCLINATION":97.6397,"RA_OF_ASC_NODE":145.6338,"ARG_OF_PERICENTER":337.2811,"MEAN_ANOMALY":22.7762,"EPHEMERIS_TYPE":0,"CLASSIFICATION_TYPE":"U","NORAD_CAT_ID":67001,"ELEMENT_SET_NO":999,"REV_AT_EPOCH":1350,"BSTAR":0.00042553792,"MEAN_MOTION_DOT":6.079e-5,"MEAN_MOTION_DDOT":0}]
